[{"OBJECT_NAME":"SL-8 R/B","OBJECT_ID":"1979-089B","EPOCH":"2026-04-03T20:29:01.072032","MEAN_MOTION":14.42368955,"ECCENTRICITY":0.0016551,"INCLINATION":74.07,"RA_OF_ASC_NODE":44.4592,"ARG_OF_PERICENTER":213.68,"MEAN_ANOMALY":146.3306,"EPHEMERIS_TYPE":0,"CLASSIFICATION_TYPE":"U","NORAD_CAT_ID":11574,"ELEMENT_SET_NO":999,"REV_AT_EPOCH":43973,"BSTAR":0.00017277,"MEAN_MOTION_DOT":5.46e-6,"MEAN_MOTION_DDOT":0},{"OBJECT_NAME":"SL-14 R/B","OBJECT_ID":"1980-005B","EPOCH":"2026-04-03T19:52:23.842272","MEAN_MOTION":14.90962009,"ECCENTRICITY":0.001721,"INCLINATION":82.5108,"RA_OF_ASC_NODE":283.3835,"ARG_OF_PERICENTER":80.7163,"MEAN_ANOMALY":279.6001,"EPHEMERIS_TYPE":0,"CLASSIFICATION_TYPE":"U","NORAD_CAT_ID":11672,"ELEMENT_SET_NO":999,"REV_AT_EPOCH":48023,"BSTAR":9.4089e-5,"MEAN_MOTION_DOT":9.57e-6,"MEAN_MOTION_DDOT":0},{"OBJECT_NAME":"SL-8 R/B","OBJECT_ID":"1981-003B","EPOCH":"2026-04-03T11:53:40.602048","MEAN_MOTION":15.1213237,"ECCENTRICITY":0.02599978,"INCLINATION":82.9334,"RA_OF_ASC_NODE":267.0642,"ARG_OF_PERICENTER":92.4717,"MEAN_ANOMALY":270.6305,"EPHEMERIS_TYPE":0,"CLASSIFICATION_TYPE":"U","NORAD_CAT_ID":12139,"ELEMENT_SET_NO":999,"REV_AT_EPOCH":31842,"BSTAR":0.00077731946,"MEAN_MOTION_DOT":0.00031239,"MEAN_MOTION_DDOT":0},{"OBJECT_NAME":"SL-3 R/B","OBJECT_ID":"1981-046B","EPOCH":"2026-04-03T19:51:43.811424","MEAN_MOTION":15.42653146,"ECCENTRICITY":0.0018074,"INCLINATION":81.2287,"RA_OF_ASC_NODE":259.5379,"ARG_OF_PERICENTER":292.7974,"MEAN_ANOMALY":67.1359,"EPHEMERIS_TYPE":0,"CLASSIFICATION_TYPE":"U","NORAD_CAT_ID":12465,"ELEMENT_SET_NO":999,"REV_AT_EPOCH":44230,"BSTAR":0.00044751,"MEAN_MOTION_DOT":0.00019658,"MEAN_MOTION_DDOT":0},{"OBJECT_NAME":"SL-3 R/B","OBJECT_ID":"1981-103B","EPOCH":"2026-04-03T19:52:50.138112","MEAN_MOTION":15.21691718,"ECCENTRICITY":0.0013065,"INCLINATION":81.1612,"RA_OF_ASC_NODE":183.9425,"ARG_OF_PERICENTER":197.503,"MEAN_ANOMALY":162.5753,"EPHEMERIS_TYPE":0,"CLASSIFICATION_TYPE":"U","NORAD_CAT_ID":12904,"ELEMENT_SET_NO":999,"REV_AT_EPOCH":97705,"BSTAR":0.00039145,"MEAN_MOTION_DOT":8.903e-5,"MEAN_MOTION_DDOT":0},{"OBJECT_NAME":"SL-3 R/B","OBJECT_ID":"1982-013B","EPOCH":"2026-04-03T19:50:08.354976","MEAN_MOTION":15.22252749,"ECCENTRICITY":0.0023504,"INCLINATION":81.1723,"RA_OF_ASC_NODE":131.3038,"ARG_OF_PERICENTER":95.4715,"MEAN_ANOMALY":264.9199,"EPHEMERIS_TYPE":0,"CLASSIFICATION_TYPE":"U","NORAD_CAT_ID":13068,"ELEMENT_SET_NO":999,"REV_AT_EPOCH":40817,"BSTAR":0.00029663,"MEAN_MOTION_DOT":6.9e-5,"MEAN_MOTION_DDOT":0},{"OBJECT_NAME":"SL-3 R/B","OBJECT_ID":"1982-039B","EPOCH":"2026-04-03T20:02:38.390784","MEAN_MOTION":15.10233831,"ECCENTRICITY":0.0028212,"INCLINATION":81.156,"RA_OF_ASC_NODE":186.9661,"ARG_OF_PERICENTER":240.6992,"MEAN_ANOMALY":119.1413,"EPHEMERIS_TYPE":0,"CLASSIFICATION_TYPE":"U","NORAD_CAT_ID":13154,"ELEMENT_SET_NO":999,"REV_AT_EPOCH":38543,"BSTAR":0.000313,"MEAN_MOTION_DOT":5.187e-5,"MEAN_MOTION_DDOT":0},{"OBJECT_NAME":"SL-3 R/B","OBJECT_ID":"1982-079B","EPOCH":"2026-04-03T19:08:37.684896","MEAN_MOTION":15.25145004,"ECCENTRICITY":0.0025445,"INCLINATION":81.1475,"RA_OF_ASC_NODE":163.4293,"ARG_OF_PERICENTER":82.491,"MEAN_ANOMALY":277.9213,"EPHEMERIS_TYPE":0,"CLASSIFICATION_TYPE":"U","NORAD_CAT_ID":13403,"ELEMENT_SET_NO":999,"REV_AT_EPOCH":38152,"BSTAR":0.00039417,"MEAN_MOTION_DOT":9.998e-5,"MEAN_MOTION_DDOT":0},{"OBJECT_NAME":"SL-14 R/B","OBJECT_ID":"1982-092B","EPOCH":"2026-04-03T13:21:35.665920","MEAN_MOTION":14.86690469,"ECCENTRICITY":0.00193938,"INCLINATION":82.5651,"RA_OF_ASC_NODE":118.135,"ARG_OF_PERICENTER":215.0194,"MEAN_ANOMALY":259.5108,"EPHEMERIS_TYPE":0,"CLASSIFICATION_TYPE":"U","NORAD_CAT_ID":13553,"ELEMENT_SET_NO":999,"REV_AT_EPOCH":33262,"BSTAR":7.761017e-5,"MEAN_MOTION_DOT":7.16e-6,"MEAN_MOTION_DDOT":0},{"OBJECT_NAME":"SL-3 R/B","OBJECT_ID":"1983-010B","EPOCH":"2026-04-03T17:33:30.226176","MEAN_MOTION":15.47228925,"ECCENTRICITY":0.001548,"INCLINATION":81.1033,"RA_OF_ASC_NODE":331.5289,"ARG_OF_PERICENTER":323.9367,"MEAN_ANOMALY":36.0832,"EPHEMERIS_TYPE":0,"CLASSIFICATION_TYPE":"U","NORAD_CAT_ID":13819,"ELEMENT_SET_NO":999,"REV_AT_EPOCH":36181,"BSTAR":0.00045266,"MEAN_MOTION_DOT":0.000232,"MEAN_MOTION_DDOT":0},{"OBJECT_NAME":"SL-3 R/B","OBJECT_ID":"1983-075B","EPOCH":"2026-04-03T18:56:31.873920","MEAN_MOTION":15.39048036,"ECCENTRICITY":0.0022791,"INCLINATION":97.6135,"RA_OF_ASC_NODE":99.3284,"ARG_OF_PERICENTER":136.385,"MEAN_ANOMALY":223.9202,"EPHEMERIS_TYPE":0,"CLASSIFICATION_TYPE":"U","NORAD_CAT_ID":14208,"ELEMENT_SET_NO":999,"REV_AT_EPOCH":33401,"BSTAR":0.00048149,"MEAN_MOTION_DOT":0.00018722,"MEAN_MOTION_DDOT":0},{"OBJECT_NAME":"COSMOS 1536","OBJECT_ID":"1984-013A","EPOCH":"2026-04-03T11:21:45.981504","MEAN_MOTION":15.2418698,"ECCENTRICITY":0.00139716,"INCLINATION":82.5419,"RA_OF_ASC_NODE":83.2004,"ARG_OF_PERICENTER":187.2704,"MEAN_ANOMALY":172.8333,"EPHEMERIS_TYPE":0,"CLASSIFICATION_TYPE":"U","NORAD_CAT_ID":14699,"ELEMENT_SET_NO":999,"REV_AT_EPOCH":27639,"BSTAR":0.00046277297,"MEAN_MOTION_DOT":0.00011335,"MEAN_MOTION_DDOT":0},{"OBJECT_NAME":"SL-14 R/B","OBJECT_ID":"1984-027B","EPOCH":"2026-04-03T19:26:05.949312","MEAN_MOTION":14.86005939,"ECCENTRICITY":0.0016617,"INCLINATION":82.5426,"RA_OF_ASC_NODE":221.4525,"ARG_OF_PERICENTER":248.539,"MEAN_ANOMALY":111.4054,"EPHEMERIS_TYPE":0,"CLASSIFICATION_TYPE":"U","NORAD_CAT_ID":14820,"ELEMENT_SET_NO":999,"REV_AT_EPOCH":25136,"BSTAR":9.778e-5,"MEAN_MOTION_DOT":8.8e-6,"MEAN_MOTION_DDOT":0},{"OBJECT_NAME":"SL-8 R/B","OBJECT_ID":"1985-006B","EPOCH":"2026-04-03T18:51:33.274656","MEAN_MOTION":14.3780249,"ECCENTRICITY":0.0017476,"INCLINATION":74.046,"RA_OF_ASC_NODE":214.9674,"ARG_OF_PERICENTER":125.2686,"MEAN_ANOMALY":346.417,"EPHEMERIS_TYPE":0,"CLASSIFICATION_TYPE":"U","NORAD_CAT_ID":15483,"ELEMENT_SET_NO":999,"REV_AT_EPOCH":15763,"BSTAR":0.00016926,"MEAN_MOTION_DOT":4.85e-6,"MEAN_MOTION_DDOT":0},{"OBJECT_NAME":"SL-12 R/B(2)","OBJECT_ID":"1985-042D","EPOCH":"2026-04-03T21:04:04.193184","MEAN_MOTION":14.21990259,"ECCENTRICITY":0.0032838,"INCLINATION":71.1099,"RA_OF_ASC_NODE":34.5111,"ARG_OF_PERICENTER":86.3032,"MEAN_ANOMALY":334.4931,"EPHEMERIS_TYPE":0,"CLASSIFICATION_TYPE":"U","NORAD_CAT_ID":15772,"ELEMENT_SET_NO":999,"REV_AT_EPOCH":11797,"BSTAR":0.00012885,"MEAN_MOTION_DOT":2.39e-6,"MEAN_MOTION_DDOT":0},{"OBJECT_NAME":"SL-14 R/B","OBJECT_ID":"1985-069B","EPOCH":"2026-04-03T18:53:09.506976","MEAN_MOTION":14.86462344,"ECCENTRICITY":0.0020291,"INCLINATION":82.5304,"RA_OF_ASC_NODE":1.3406,"ARG_OF_PERICENTER":107.7626,"MEAN_ANOMALY":252.5807,"EPHEMERIS_TYPE":0,"CLASSIFICATION_TYPE":"U","NORAD_CAT_ID":15945,"ELEMENT_SET_NO":999,"REV_AT_EPOCH":17656,"BSTAR":8.9774e-5,"MEAN_MOTION_DOT":8.21e-6,"MEAN_MOTION_DDOT":0},{"OBJECT_NAME":"SL-16 R/B","OBJECT_ID":"1985-097B","EPOCH":"2026-04-03T17:20:55.500576","MEAN_MOTION":14.16602742,"ECCENTRICITY":0.0009232,"INCLINATION":71.0008,"RA_OF_ASC_NODE":87.8491,"ARG_OF_PERICENTER":229.9561,"MEAN_ANOMALY":302.5407,"EPHEMERIS_TYPE":0,"CLASSIFICATION_TYPE":"U","NORAD_CAT_ID":16182,"ELEMENT_SET_NO":999,"REV_AT_EPOCH":9077,"BSTAR":-5.5333e-5,"MEAN_MOTION_DOT":-1.58e-6,"MEAN_MOTION_DDOT":0}]
