SL-8 R/B                
1 11574U 79089B   26093.85348463  .00000546  00000+0  17277-3 0  9993
2 11574  74.0700  44.4592 0016551 213.6800 146.3306 14.42368955439730
SL-14 R/B               
1 11672U 80005B   26093.82805373  .00000957  00000+0  94089-4 0  9990
2 11672  82.5108 283.3835 0017210  80.7163 279.6001 14.90962009480233
SL-8 R/B                
1 12139U 81003B   26093.49560882  .00031239  00000+0  77732-3 0  9996
2 12139  82.9334 267.0642 0259997  92.4717 270.6305 15.12132370318421
SL-3 R/B                
1 12465U 81046B   26093.82759041  .00019658  00000+0  44751-3 0  9995
2 12465  81.2287 259.5379 0018074 292.7974  67.1359 15.42653146442309
SL-3 R/B                
1 12904U 81103B   26093.82835808  .00008903  00000+0  39145-3 0  9995
2 12904  81.1612 183.9425 0013065 197.5030 162.5753 15.21691718977057
SL-3 R/B                
1 13068U 82013B   26093.82648559  .00006900  00000+0  29663-3 0  9992
2 13068  81.1723 131.3038 0023504  95.4715 264.9199 15.22252749408175
SL-3 R/B                
1 13154U 82039B   26093.83516656  .00005187  00000+0  31300-3 0  9996
2 13154  81.1560 186.9661 0028212 240.6992 119.1413 15.10233831385431
SL-3 R/B                
1 13403U 82079B   26093.79765839  .00009998  00000+0  39417-3 0  9992
2 13403  81.1475 163.4293 0025445  82.4910 277.9213 15.25145004381528
SL-14 R/B               
1 13553U 82092B   26093.55666280  .00000716  00000+0  77610-4 0  9994
2 13553  82.5651 118.1350 0019393 215.0194 259.5108 14.86690469332621
SL-3 R/B                
1 13819U 83010B   26093.73159984  .00023200  00000+0  45266-3 0  9992
2 13819  81.1033 331.5289 0015480 323.9367  36.0832 15.47228925361818
SL-3 R/B                
1 14208U 83075B   26093.78925780  .00018722  00000+0  48149-3 0  9992
2 14208  97.6135  99.3284 0022791 136.3850 223.9202 15.39048036334010
COSMOS 1536             
1 14699U 84013A   26093.47344886  .00011335  00000+0  46277-3 0  9990
2 14699  82.5419  83.2004 0013971 187.2704 172.8333 15.24186980276395
SL-14 R/B               
1 14820U 84027B   26093.80979108  .00000880  00000+0  97780-4 0  9998
2 14820  82.5426 221.4525 0016617 248.5390 111.4054 14.86005939251365
SL-8 R/B                
1 15483U 85006B   26093.78580179  .00000485  00000+0  16926-3 0  9998
2 15483  74.0460 214.9674 0017476 125.2686 346.4170 14.37802490157637
SL-12 R/B(2)            
1 15772U 85042D   26093.87782631  .00000239  00000+0  12885-3 0  9993
2 15772  71.1099  34.5111 0032838  86.3032 334.4931 14.21990259117976
SL-14 R/B               
1 15945U 85069B   26093.78691559  .00000821  00000+0  89774-4 0  9991
2 15945  82.5304   1.3406 0020291 107.7626 252.5807 14.86462344176561
SL-16 R/B               
1 16182U 85097B   26093.72286459 -.00000158  00000+0 -55333-4 0  9998
2 16182  71.0008  87.8491 0009232 229.9561 302.5407 14.16602742 90770
